{
 "type": "FeatureCollection",
 "comment": "PLACEHOLDER hand-drawn approximation for development and tests only. Replace with official GIS (SPEC §16 item 7).",
 "features": [
  {
   "type": "Feature",
   "properties": {
    "code": "ARUBA_LAND",
    "name": "Aruba (land)"
   },
   "geometry": {
    "type": "MultiPolygon",
    "coordinates": [
     [
      [
       [
        -70.0565,
        12.612
       ],
       [
        -70.05,
        12.595
       ],
       [
        -70.054,
        12.575
       ],
       [
        -70.062,
        12.555
       ],
       [
        -70.058,
        12.54
       ],
       [
        -70.04,
        12.515
       ],
       [
        -70.02,
        12.495
       ],
       [
        -69.995,
        12.488
       ],
       [
        -69.978,
        12.495
       ],
       [
        -69.962,
        12.463
       ],
       [
        -69.94,
        12.442
       ],
       [
        -69.91,
        12.425
       ],
       [
        -69.895,
        12.415
       ],
       [
        -69.88,
        12.412
       ],
       [
        -69.868,
        12.42
       ],
       [
        -69.865,
        12.44
       ],
       [
        -69.88,
        12.47
       ],
       [
        -69.9,
        12.498
       ],
       [
        -69.91,
        12.525
       ],
       [
        -69.935,
        12.53
       ],
       [
        -69.96,
        12.545
       ],
       [
        -69.985,
        12.565
       ],
       [
        -70.01,
        12.59
       ],
       [
        -70.03,
        12.605
       ],
       [
        -70.042,
        12.618
       ],
       [
        -70.0525,
        12.6265
       ],
       [
        -70.0565,
        12.612
       ]
      ]
     ]
    ]
   }
  }
 ]
}
